{
  "type": "FeatureCollection",
  "features": [
    {
      "type": "Feature",
      "properties": {
        "norad_id": 34350,
        "name": "IRIDIUM 33 DEB",
        "group": "iridium-33-debris",
        "lat": 3.02548506319433,
        "lon": -177.2766659655538,
        "alt_km": 731.1600959546768,
        "timestamp": "2025-12-12T11:38:31.797342+00:00",
        "meta_object_name": "IRIDIUM 33 DEB",
        "meta_object_id": "1997-051ES",
        "meta_epoch": "2025-12-12T01:07:32.541888",
        "meta_mean_motion": 14.45384473,
        "meta_eccentricity": 0.0022774,
        "meta_inclination": 86.3275,
        "meta_ra_of_asc_node": 3.1079,
        "meta_arg_of_pericenter": 137.3391,
        "meta_mean_anomaly": 280.7434,
        "meta_ephemeris_type": 0,
        "meta_classification_type": "U",
        "meta_norad_cat_id": 34350,
        "meta_element_set_no": 999,
        "meta_rev_at_epoch": 88283,
        "meta_bstar": 0.00047567,
        "meta_mean_motion_dot": 1.697e-05,
        "meta_mean_motion_ddot": 0,
        "tle_line1": "1 34350U 97051ES  25346.04690442  .00001697  00000+0  47567-3 0  9990",
        "tle_line2": "2 34350  86.3275   3.1079 0022774 137.3391 280.7434 14.45384473882837"
      },
      "geometry": {
        "type": "Point",
        "coordinates": [
          -177.2766659655538,
          3.02548506319433
        ]
      }
    },
    {
      "type": "Feature",
      "properties": {
        "norad_id": 34366,
        "name": "IRIDIUM 33 DEB",
        "group": "iridium-33-debris",
        "lat": 43.13279896628881,
        "lon": -133.98646462240168,
        "alt_km": 693.0719858081611,
        "timestamp": "2025-12-12T11:38:31.797352+00:00",
        "meta_object_name": "IRIDIUM 33 DEB",
        "meta_object_id": "1997-051FJ",
        "meta_epoch": "2025-12-12T04:39:17.531424",
        "meta_mean_motion": 14.54051979,
        "meta_eccentricity": 0.0022431,
        "meta_inclination": 86.3694,
        "meta_ra_of_asc_node": 49.5503,
        "meta_arg_of_pericenter": 141.384,
        "meta_mean_anomaly": 272.3047,
        "meta_ephemeris_type": 0,
        "meta_classification_type": "U",
        "meta_norad_cat_id": 34366,
        "meta_element_set_no": 999,
        "meta_rev_at_epoch": 88174,
        "meta_bstar": 0.0017102,
        "meta_mean_motion_dot": 7.261e-05,
        "meta_mean_motion_ddot": 0,
        "tle_line1": "1 34366U 97051FJ  25346.19395291  .00007261  00000+0  17102-2 0  9991",
        "tle_line2": "2 34366  86.3694  49.5503 0022431 141.3840 272.3047 14.54051979881747"
      },
      "geometry": {
        "type": "Point",
        "coordinates": [
          -133.98646462240168,
          43.13279896628881
        ]
      }
    },
    {
      "type": "Feature",
      "properties": {
        "norad_id": 34375,
        "name": "IRIDIUM 33 DEB",
        "group": "iridium-33-debris",
        "lat": 83.05414526487132,
        "lon": -146.39882941357115,
        "alt_km": 770.3210096467328,
        "timestamp": "2025-12-12T11:38:31.797362+00:00",
        "meta_object_name": "IRIDIUM 33 DEB",
        "meta_object_id": "1997-051FT",
        "meta_epoch": "2025-12-12T00:08:57.011424",
        "meta_mean_motion": 14.17990153,
        "meta_eccentricity": 0.0103263,
        "meta_inclination": 86.4328,
        "meta_ra_of_asc_node": 182.9943,
        "meta_arg_of_pericenter": 129.0153,
        "meta_mean_anomaly": 32.8209,
        "meta_ephemeris_type": 0,
        "meta_classification_type": "U",
        "meta_norad_cat_id": 34375,
        "meta_element_set_no": 999,
        "meta_rev_at_epoch": 86701,
        "meta_bstar": 0.0006067,
        "meta_mean_motion_dot": 1.328e-05,
        "meta_mean_motion_ddot": 0,
        "tle_line1": "1 34375U 97051FT  25346.00621541  .00001328  00000+0  60670-3 0  9998",
        "tle_line2": "2 34375  86.4328 182.9943 0103263 129.0153  32.8209 14.17990153867013"
      },
      "geometry": {
        "type": "Point",
        "coordinates": [
          -146.39882941357115,
          83.05414526487132
        ]
      }
    },
    {
      "type": "Feature",
      "properties": {
        "norad_id": 34376,
        "name": "IRIDIUM 33 DEB",
        "group": "iridium-33-debris",
        "lat": 55.87341957771521,
        "lon": 12.134784735113175,
        "alt_km": 686.5977916178299,
        "timestamp": "2025-12-12T11:38:31.797373+00:00",
        "meta_object_name": "IRIDIUM 33 DEB",
        "meta_object_id": "1997-051FU",
        "meta_epoch": "2025-12-12T01:32:00.921120",
        "meta_mean_motion": 14.62553654,
        "meta_eccentricity": 0.0027118,
        "meta_inclination": 86.2991,
        "meta_ra_of_asc_node": 6.8437,
        "meta_arg_of_pericenter": 168.8775,
        "meta_mean_anomaly": 191.3042,
        "meta_ephemeris_type": 0,
        "meta_classification_type": "U",
        "meta_norad_cat_id": 34376,
        "meta_element_set_no": 999,
        "meta_rev_at_epoch": 87997,
        "meta_bstar": 0.0021834,
        "meta_mean_motion_dot": 0.00011166,
        "meta_mean_motion_ddot": 0,
        "tle_line1": "1 34376U 97051FU  25346.06389955  .00011166  00000+0  21834-2 0  9994",
        "tle_line2": "2 34376  86.2991   6.8437 0027118 168.8775 191.3042 14.62553654879970"
      },
      "geometry": {
        "type": "Point",
        "coordinates": [
          12.134784735113175,
          55.87341957771521
        ]
      }
    },
    {
      "type": "Feature",
      "properties": {
        "norad_id": 34486,
        "name": "IRIDIUM 33 DEB",
        "group": "iridium-33-debris",
        "lat": -62.530452785806425,
        "lon": -160.890751074813,
        "alt_km": 593.1347506156235,
        "timestamp": "2025-12-12T11:38:31.797383+00:00",
        "meta_object_name": "IRIDIUM 33 DEB",
        "meta_object_id": "1997-051GB",
        "meta_epoch": "2025-12-12T02:47:17.170080",
        "meta_mean_motion": 14.95759762,
        "meta_eccentricity": 0.00136,
        "meta_inclination": 86.3941,
        "meta_ra_of_asc_node": 12.3125,
        "meta_arg_of_pericenter": 115.3931,
        "meta_mean_anomaly": 301.9535,
        "meta_ephemeris_type": 0,
        "meta_classification_type": "U",
        "meta_norad_cat_id": 34486,
        "meta_element_set_no": 999,
        "meta_rev_at_epoch": 88977,
        "meta_bstar": 0.0027909,
        "meta_mean_motion_dot": 0.00031283,
        "meta_mean_motion_ddot": 0,
        "tle_line1": "1 34486U 97051GB  25346.11617095  .00031283  00000+0  27909-2 0  9992",
        "tle_line2": "2 34486  86.3941  12.3125 0013600 115.3931 301.9535 14.95759762889775"
      },
      "geometry": {
        "type": "Point",
        "coordinates": [
          -160.890751074813,
          -62.530452785806425
        ]
      }
    },
    {
      "type": "Feature",
      "properties": {
        "norad_id": 34487,
        "name": "IRIDIUM 33 DEB",
        "group": "iridium-33-debris",
        "lat": -53.832739980964256,
        "lon": 7.468400754940854,
        "alt_km": 778.2854236011335,
        "timestamp": "2025-12-12T11:38:31.797393+00:00",
        "meta_object_name": "IRIDIUM 33 DEB",
        "meta_object_id": "1997-051GC",
        "meta_epoch": "2025-12-12T02:09:31.800960",
        "meta_mean_motion": 14.43215052,
        "meta_eccentricity": 0.0032733,
        "meta_inclination": 86.3435,
        "meta_ra_of_asc_node": 12.6569,
        "meta_arg_of_pericenter": 130.4184,
        "meta_mean_anomaly": 283.9789,
        "meta_ephemeris_type": 0,
        "meta_classification_type": "U",
        "meta_norad_cat_id": 34487,
        "meta_element_set_no": 999,
        "meta_rev_at_epoch": 88239,
        "meta_bstar": 0.00028054,
        "meta_mean_motion_dot": 9.69e-06,
        "meta_mean_motion_ddot": 0,
        "tle_line1": "1 34487U 97051GC  25346.08995140  .00000969  00000+0  28054-3 0  9999",
        "tle_line2": "2 34487  86.3435  12.6569 0032733 130.4184 283.9789 14.43215052882398"
      },
      "geometry": {
        "type": "Point",
        "coordinates": [
          7.468400754940854,
          -53.832739980964256
        ]
      }
    },
    {
      "type": "Feature",
      "properties": {
        "norad_id": 34488,
        "name": "IRIDIUM 33 DEB",
        "group": "iridium-33-debris",
        "lat": -15.545078616178126,
        "lon": 126.96490241184958,
        "alt_km": 490.14568331891223,
        "timestamp": "2025-12-12T11:38:31.797404+00:00",
        "meta_object_name": "IRIDIUM 33 DEB",
        "meta_object_id": "1997-051GD",
        "meta_epoch": "2025-12-11T08:05:29.176800",
        "meta_mean_motion": 15.28894611,
        "meta_eccentricity": 0.00136408,
        "meta_inclination": 86.3246,
        "meta_ra_of_asc_node": 306.5086,
        "meta_arg_of_pericenter": 54.3044,
        "meta_mean_anomaly": 305.9471,
        "meta_ephemeris_type": 0,
        "meta_classification_type": "U",
        "meta_norad_cat_id": 34488,
        "meta_element_set_no": 999,
        "meta_rev_at_epoch": 89218,
        "meta_bstar": 0.0084778967,
        "meta_mean_motion_dot": 0.00245926,
        "meta_mean_motion_ddot": 0,
        "tle_line1": "1 34488U 97051GD  25345.33714325  .00245926  00000+0  84779-2 0  9990",
        "tle_line2": "2 34488  86.3246 306.5086 0013640  54.3044 305.9471 15.28894611892182"
      },
      "geometry": {
        "type": "Point",
        "coordinates": [
          126.96490241184958,
          -15.545078616178126
        ]
      }
    }
  ]
}